ALOS (DAICHI)           
1 28931U 06002A   26036.30135058  .00002111  00000+0  36275-3 0  9993
2 28931  98.1167 352.4339 0002049  68.8415 291.3009 14.69700693 68725
H-2A R/B                
1 28932U 06002B   26036.66472943  .00014258  00000+0  72403-3 0  9998
2 28932  98.2362 180.9650 0053062 351.4673   8.5650 15.15780085 89584
RESURS-DK 1             
1 29228U 06021A   26036.19867608  .00004449  00000+0  26059-3 0  9999
2 29228  69.9352 321.0559 0004902 208.4378 151.6521 15.12548417 82617
CZ-4B R/B               
1 29507U 06046C   26036.67816620  .00008121  00000+0  41354-3 0  9993
2 29507  97.5649  81.6701 0034006  21.1542 339.1088 15.16554851 55199
CZ-2C R/B               
1 31114U 07010B   26036.31875822  .00000157  00000+0  91058-4 0  9990
2 31114  98.3970 151.2236 0059472  29.3813 331.0687 14.20234811975129
COSMO-SKYMED 1          
1 31598U 07023A   26036.70144601  .00007035  00000+0  62764-3 0  9990
2 31598  97.8855 227.4846 0001081  74.8120 285.3220 14.96284353 10126
COSMOS 2428             
1 31792U 07029A   26036.67682035  .00000373  00000+0  22597-3 0  9994
2 31792  70.9397 270.5438 0007105 312.6049  47.4472 14.12930627959574
SL-16 R/B               
1 31793U 07029B   26036.67835674  .00000449  00000+0  25744-3 0  9995
2 31793  70.9731 239.6736 0001866 275.7303 148.8417 14.14828972960842
KORONAS-FOTON           
1 33504U 09003A   26036.72571749  .00015228  00000+0  35012-3 0  9997
2 33504  82.4333 309.0840 0008898 275.2950  84.7281 15.42486489940810
CZ-2C R/B               
1 37731U 11030B   26036.40646866  .00002016  00000+0  26002-3 0  9994
2 37731  97.8491 354.3326 0054233  95.2152  66.1569 14.81097561785317
H-2A R/B                
1 38341U 12025E   26036.33485875  .00004853  00000+0  44201-3 0  9992
2 38341  98.4684   0.8140 0046156  59.3805 301.1953 14.94882985743380
SHIJIAN-16 (SJ-16)      
1 39358U 13057A   26036.71702260  .00000965  00000+0  97291-4 0  9997
2 39358  74.9700 245.6122 0016956 191.9899 168.0889 14.92229370666739
