CCSDS_OMM_VERS = 2.0
CREATION_DATE  = 
ORIGINATOR     = 

OBJECT_NAME    = ALOS (DAICHI)
OBJECT_ID      = 2006-002A
CENTER_NAME    = EARTH
REF_FRAME      = TEME
TIME_SYSTEM    = UTC
MEAN_ELEMENT_THEORY = SGP/SGP4

EPOCH          = 2026-02-05T07:13:56.690112
MEAN_MOTION    = 14.69700693
ECCENTRICITY   = .0002049
INCLINATION    = 98.1167
RA_OF_ASC_NODE = 352.4339
ARG_OF_PERICENTER = 68.8415
MEAN_ANOMALY   = 291.3009

EPHEMERIS_TYPE = 0
CLASSIFICATION_TYPE = U
NORAD_CAT_ID   = 28931
ELEMENT_SET_NO = 999
REV_AT_EPOCH   = 6872
BSTAR          = .36275E-3
MEAN_MOTION_DOT = .2111E-4
MEAN_MOTION_DDOT = 0

CCSDS_OMM_VERS = 2.0
CREATION_DATE  = 
ORIGINATOR     = 

OBJECT_NAME    = H-2A R/B
OBJECT_ID      = 2006-002B
CENTER_NAME    = EARTH
REF_FRAME      = TEME
TIME_SYSTEM    = UTC
MEAN_ELEMENT_THEORY = SGP/SGP4

EPOCH          = 2026-02-05T15:57:12.622752
MEAN_MOTION    = 15.15780085
ECCENTRICITY   = .00530621
INCLINATION    = 98.2362
RA_OF_ASC_NODE = 180.9650
ARG_OF_PERICENTER = 351.4673
MEAN_ANOMALY   = 8.5650

EPHEMERIS_TYPE = 0
CLASSIFICATION_TYPE = U
NORAD_CAT_ID   = 28932
ELEMENT_SET_NO = 999
REV_AT_EPOCH   = 8958
BSTAR          = .72402851E-3
MEAN_MOTION_DOT = .14258E-3
MEAN_MOTION_DDOT = 0

CCSDS_OMM_VERS = 2.0
CREATION_DATE  = 
ORIGINATOR     = 

OBJECT_NAME    = RESURS-DK 1
OBJECT_ID      = 2006-021A
CENTER_NAME    = EARTH
REF_FRAME      = TEME
TIME_SYSTEM    = UTC
MEAN_ELEMENT_THEORY = SGP/SGP4

EPOCH          = 2026-02-05T04:46:05.613312
MEAN_MOTION    = 15.12548417
ECCENTRICITY   = .0004902
INCLINATION    = 69.9352
RA_OF_ASC_NODE = 321.0559
ARG_OF_PERICENTER = 208.4378
MEAN_ANOMALY   = 151.6521

EPHEMERIS_TYPE = 0
CLASSIFICATION_TYPE = U
NORAD_CAT_ID   = 29228
ELEMENT_SET_NO = 999
REV_AT_EPOCH   = 8261
BSTAR          = .26059E-3
MEAN_MOTION_DOT = .4449E-4
MEAN_MOTION_DDOT = 0

CCSDS_OMM_VERS = 2.0
CREATION_DATE  = 
ORIGINATOR     = 

OBJECT_NAME    = CZ-4B R/B
OBJECT_ID      = 2006-046C
CENTER_NAME    = EARTH
REF_FRAME      = TEME
TIME_SYSTEM    = UTC
MEAN_ELEMENT_THEORY = SGP/SGP4

EPOCH          = 2026-02-05T16:16:33.559680
MEAN_MOTION    = 15.16554851
ECCENTRICITY   = .00340062
INCLINATION    = 97.5649
RA_OF_ASC_NODE = 81.6701
ARG_OF_PERICENTER = 21.1542
MEAN_ANOMALY   = 339.1088

EPHEMERIS_TYPE = 0
CLASSIFICATION_TYPE = U
NORAD_CAT_ID   = 29507
ELEMENT_SET_NO = 999
REV_AT_EPOCH   = 5519
BSTAR          = .4135425E-3
MEAN_MOTION_DOT = .8121E-4
MEAN_MOTION_DDOT = 0

CCSDS_OMM_VERS = 2.0
CREATION_DATE  = 
ORIGINATOR     = 

OBJECT_NAME    = CZ-2C R/B
OBJECT_ID      = 2007-010B
CENTER_NAME    = EARTH
REF_FRAME      = TEME
TIME_SYSTEM    = UTC
MEAN_ELEMENT_THEORY = SGP/SGP4

EPOCH          = 2026-02-05T07:39:00.710208
MEAN_MOTION    = 14.20234811
ECCENTRICITY   = .00594725
INCLINATION    = 98.3970
RA_OF_ASC_NODE = 151.2236
ARG_OF_PERICENTER = 29.3813
MEAN_ANOMALY   = 331.0687

EPHEMERIS_TYPE = 0
CLASSIFICATION_TYPE = U
NORAD_CAT_ID   = 31114
ELEMENT_SET_NO = 999
REV_AT_EPOCH   = 97512
BSTAR          = .91057813E-4
MEAN_MOTION_DOT = .157E-5
MEAN_MOTION_DDOT = 0

CCSDS_OMM_VERS = 2.0
CREATION_DATE  = 
ORIGINATOR     = 

OBJECT_NAME    = COSMO-SKYMED 1
OBJECT_ID      = 2007-023A
CENTER_NAME    = EARTH
REF_FRAME      = TEME
TIME_SYSTEM    = UTC
MEAN_ELEMENT_THEORY = SGP/SGP4

EPOCH          = 2026-02-05T16:50:04.935264
MEAN_MOTION    = 14.96284353
ECCENTRICITY   = .00010812
INCLINATION    = 97.8855
RA_OF_ASC_NODE = 227.4846
ARG_OF_PERICENTER = 74.8120
MEAN_ANOMALY   = 285.3220

EPHEMERIS_TYPE = 0
CLASSIFICATION_TYPE = U
NORAD_CAT_ID   = 31598
ELEMENT_SET_NO = 999
REV_AT_EPOCH   = 1012
BSTAR          = .6276438E-3
MEAN_MOTION_DOT = .7035E-4
MEAN_MOTION_DDOT = 0

CCSDS_OMM_VERS = 2.0
CREATION_DATE  = 
ORIGINATOR     = 

OBJECT_NAME    = COSMOS 2428
OBJECT_ID      = 2007-029A
CENTER_NAME    = EARTH
REF_FRAME      = TEME
TIME_SYSTEM    = UTC
MEAN_ELEMENT_THEORY = SGP/SGP4

EPOCH          = 2026-02-05T16:14:37.278240
MEAN_MOTION    = 14.12930627
ECCENTRICITY   = .00071057
INCLINATION    = 70.9397
RA_OF_ASC_NODE = 270.5438
ARG_OF_PERICENTER = 312.6049
MEAN_ANOMALY   = 47.4472

EPHEMERIS_TYPE = 0
CLASSIFICATION_TYPE = U
NORAD_CAT_ID   = 31792
ELEMENT_SET_NO = 999
REV_AT_EPOCH   = 95957
BSTAR          = .22597214E-3
MEAN_MOTION_DOT = .373E-5
MEAN_MOTION_DDOT = 0

CCSDS_OMM_VERS = 2.0
CREATION_DATE  = 
ORIGINATOR     = 

OBJECT_NAME    = SL-16 R/B
OBJECT_ID      = 2007-029B
CENTER_NAME    = EARTH
REF_FRAME      = TEME
TIME_SYSTEM    = UTC
MEAN_ELEMENT_THEORY = SGP/SGP4

EPOCH          = 2026-02-05T16:16:50.022336
MEAN_MOTION    = 14.14828972
ECCENTRICITY   = .00018668
INCLINATION    = 70.9731
RA_OF_ASC_NODE = 239.6736
ARG_OF_PERICENTER = 275.7303
MEAN_ANOMALY   = 148.8417

EPHEMERIS_TYPE = 0
CLASSIFICATION_TYPE = U
NORAD_CAT_ID   = 31793
ELEMENT_SET_NO = 999
REV_AT_EPOCH   = 96084
BSTAR          = .25743926E-3
MEAN_MOTION_DOT = .449E-5
MEAN_MOTION_DDOT = 0

CCSDS_OMM_VERS = 2.0
CREATION_DATE  = 
ORIGINATOR     = 

OBJECT_NAME    = KORONAS-FOTON
OBJECT_ID      = 2009-003A
CENTER_NAME    = EARTH
REF_FRAME      = TEME
TIME_SYSTEM    = UTC
MEAN_ELEMENT_THEORY = SGP/SGP4

EPOCH          = 2026-02-05T17:25:01.991136
MEAN_MOTION    = 15.42486489
ECCENTRICITY   = .00088986
INCLINATION    = 82.4333
RA_OF_ASC_NODE = 309.0840
ARG_OF_PERICENTER = 275.2950
MEAN_ANOMALY   = 84.7281

EPHEMERIS_TYPE = 0
CLASSIFICATION_TYPE = U
NORAD_CAT_ID   = 33504
ELEMENT_SET_NO = 999
REV_AT_EPOCH   = 94081
BSTAR          = .3501232E-3
MEAN_MOTION_DOT = .15228E-3
MEAN_MOTION_DDOT = 0

CCSDS_OMM_VERS = 2.0
CREATION_DATE  = 
ORIGINATOR     = 

OBJECT_NAME    = CZ-2C R/B
OBJECT_ID      = 2011-030B
CENTER_NAME    = EARTH
REF_FRAME      = TEME
TIME_SYSTEM    = UTC
MEAN_ELEMENT_THEORY = SGP/SGP4

EPOCH          = 2026-02-05T09:45:18.892224
MEAN_MOTION    = 14.81097561
ECCENTRICITY   = .00542334
INCLINATION    = 97.8491
RA_OF_ASC_NODE = 354.3326
ARG_OF_PERICENTER = 95.2152
MEAN_ANOMALY   = 66.1569

EPHEMERIS_TYPE = 0
CLASSIFICATION_TYPE = U
NORAD_CAT_ID   = 37731
ELEMENT_SET_NO = 999
REV_AT_EPOCH   = 78531
BSTAR          = .26002002E-3
MEAN_MOTION_DOT = .2016E-4
MEAN_MOTION_DDOT = 0

CCSDS_OMM_VERS = 2.0
CREATION_DATE  = 
ORIGINATOR     = 

OBJECT_NAME    = H-2A R/B
OBJECT_ID      = 2012-025E
CENTER_NAME    = EARTH
REF_FRAME      = TEME
TIME_SYSTEM    = UTC
MEAN_ELEMENT_THEORY = SGP/SGP4

EPOCH          = 2026-02-05T08:02:11.796000
MEAN_MOTION    = 14.94882985
ECCENTRICITY   = .00461567
INCLINATION    = 98.4684
RA_OF_ASC_NODE = 0.8140
ARG_OF_PERICENTER = 59.3805
MEAN_ANOMALY   = 301.1953

EPHEMERIS_TYPE = 0
CLASSIFICATION_TYPE = U
NORAD_CAT_ID   = 38341
ELEMENT_SET_NO = 999
REV_AT_EPOCH   = 74338
BSTAR          = .44200809E-3
MEAN_MOTION_DOT = .4853E-4
MEAN_MOTION_DDOT = 0

CCSDS_OMM_VERS = 2.0
CREATION_DATE  = 
ORIGINATOR     = 

OBJECT_NAME    = SHIJIAN-16 (SJ-16)
OBJECT_ID      = 2013-057A
CENTER_NAME    = EARTH
REF_FRAME      = TEME
TIME_SYSTEM    = UTC
MEAN_ELEMENT_THEORY = SGP/SGP4

EPOCH          = 2026-02-05T17:12:30.752640
MEAN_MOTION    = 14.92229370
ECCENTRICITY   = .00169562
INCLINATION    = 74.9700
RA_OF_ASC_NODE = 245.6122
ARG_OF_PERICENTER = 191.9899
MEAN_ANOMALY   = 168.0889

EPHEMERIS_TYPE = 0
CLASSIFICATION_TYPE = U
NORAD_CAT_ID   = 39358
ELEMENT_SET_NO = 999
REV_AT_EPOCH   = 66673
BSTAR          = .9729067E-4
MEAN_MOTION_DOT = .965E-5
MEAN_MOTION_DDOT = 0

